{
  "norad_id": 64557,
  "name": "CONNECTA IOT-11",
  "history": [
    {
      "epoch": "2026-03-28T13:21:28.071360Z",
      "apogee_km": 502.6405865785291,
      "perigee_km": 502.39260782288693,
      "latitude_deg": 1.0823268092410757e-06,
      "longitude_deg": 177.28491481237606,
      "height_km": 505.5408751218932,
      "semi_major_axis_km": 6880.653597200708,
      "eccentricity": 1.802e-05,
      "inclination_deg": 97.4609,
      "raan_deg": 203.6272,
      "arg_perigee_deg": 57.9904,
      "mean_anomaly_deg": 302.1349,
      "mean_motion_rev_day": 15.21101592
    },
    {
      "epoch": "2026-03-31T01:21:12.223872Z",
      "apogee_km": 503.09056387756755,
      "perigee_km": 502.02735873762595,
      "latitude_deg": 4.359439453336188e-05,
      "longitude_deg": -2.6365896110510785,
      "height_km": 505.5867516951468,
      "semi_major_axis_km": 6880.695961307596,
      "eccentricity": 7.726e-05,
      "inclination_deg": 97.464,
      "raan_deg": 206.1036,
      "arg_perigee_deg": 276.8518,
      "mean_anomaly_deg": 83.263,
      "mean_motion_rev_day": 15.21087544
    },
    {
      "epoch": "2026-04-01T07:21:04.542048Z",
      "apogee_km": 503.226097900535,
      "perigee_km": 501.9641716270198,
      "latitude_deg": 6.10868930099842e-07,
      "longitude_deg": -92.59974329530475,
      "height_km": 505.3267901103,
      "semi_major_axis_km": 6880.732134763777,
      "eccentricity": 9.17e-05,
      "inclination_deg": 97.4594,
      "raan_deg": 207.3404,
      "arg_perigee_deg": 55.5027,
      "mean_anomaly_deg": 304.6295,
      "mean_motion_rev_day": 15.21075549
    },
    {
      "epoch": "2026-04-01T13:40:00.097248Z",
      "apogee_km": 502.7757618916794,
      "perigee_km": 502.49777863136023,
      "latitude_deg": -6.883647862011875e-05,
      "longitude_deg": 172.67282049959908,
      "height_km": 505.78238795585787,
      "semi_major_axis_km": 6880.7737702615195,
      "eccentricity": 2.02e-05,
      "inclination_deg": 97.4625,
      "raan_deg": 207.6038,
      "arg_perigee_deg": 113.6384,
      "mean_anomaly_deg": 246.4872,
      "mean_motion_rev_day": 15.21061743
    },
    {
      "epoch": "2026-04-03T13:01:57.566496Z",
      "apogee_km": 502.93815469512174,
      "perigee_km": 502.4968166884091,
      "latitude_deg": -5.287022606148796e-05,
      "longitude_deg": -177.80858660076998,
      "height_km": 505.93444712125324,
      "semi_major_axis_km": 6880.854485691765,
      "eccentricity": 3.207e-05,
      "inclination_deg": 97.4604,
      "raan_deg": 209.5571,
      "arg_perigee_deg": 125.1848,
      "mean_anomaly_deg": 234.9417,
      "mean_motion_rev_day": 15.21034979
    }
  ]
}